{"fetched_at":"2026-03-29T16:36:15Z","count":15609,"tles":[{"name":"STARLINK-32135","line1":"1 60277U 24131Y   26087.91482645  .00000282  00000+0  21654-4 0  9998","line2":"2 60277  53.1612 323.0134 0001239  94.6763 265.4379 15.30191905 94663","category":"Starlink"}]}