{
  "norad_id": 60277,
  "name": "STARLINK-32135",
  "history": [
    {
      "epoch": "2026-03-28T21:57:21.005280",
      "apogee_km": 476.0883730528467,
      "perigee_km": 474.39010642064113,
      "latitude_deg": -52.99527746745261,
      "longitude_deg": -64.4766607999336,
      "semi_major_axis_km": 6853.376239736744,
      "eccentricity": 0.0001239,
      "inclination_deg": 53.1612,
      "raan_deg": 323.0134,
      "arg_perigee_deg": 94.6763,
      "mean_anomaly_deg": 265.4379,
      "mean_motion_rev_day": 15.30191905
    }
  ]
}